EXO-0                   
1 59175U 23174DK  26068.71046781  .00011582  00000+0  36716-3 0  9992
2 59175  97.3864 148.9039 0009878 157.1125 203.0559 15.32821991129797
STARLINK-35852          
1 66889U 25283M   26068.29656877  .00020086  00000+0  68888-3 0  9995
2 66889  53.1614  26.0141 0001379  72.4217 287.6935 15.30180185 15789
